OBJECT_NAME,OBJECT_ID,EPOCH,MEAN_MOTION,ECCENTRICITY,INCLINATION,RA_OF_ASC_NODE,ARG_OF_PERICENTER,MEAN_ANOMALY,EPHEMERIS_TYPE,CLASSIFICATION_TYPE,NORAD_CAT_ID,ELEMENT_SET_NO,REV_AT_EPOCH,BSTAR,MEAN_MOTION_DOT,MEAN_MOTION_DDOT
STARLINK-4700,2022-107Y,2026-04-23T01:30:31.551552,15.08835539,.00015722,53.2179,54.8307,87.8073,272.3100,0,U,53722,999,20110,-.3263724E-5,-.34E-5,0
STARLINK-4705,2022-107Z,2026-04-23T05:39:32.541120,15.08843107,.00015006,53.2176,53.7887,94.0139,266.1025,0,U,53723,999,20128,.6719811E-4,.782E-5,0
STARLINK-4663,2022-107AA,2026-04-23T02:49:59.624544,15.08835354,.00015629,53.2175,54.4702,90.2633,269.8538,0,U,53724,999,20112,-.6259859E-5,-.388E-5,0
STARLINK-4697,2022-107AC,2026-04-23T03:00:36.474624,15.08835983,.00015822,53.2179,54.5144,89.4929,270.6244,0,U,53726,999,20112,.10360879E-4,-.123E-5,0
STARLINK-4701,2022-107AD,2026-04-23T03:16:31.510848,15.08844972,.00013682,53.2180,54.5828,89.8078,270.3071,0,U,53727,999,20126,-.67147559E-4,-.1357E-4,0
STARLINK-4640,2022-107AE,2026-04-23T06:21:59.576832,15.08835084,.00014939,53.2178,53.9639,88.4237,271.6926,0,U,53728,999,20128,-.604168E-6,-.298E-5,0
STARLINK-4651,2022-107AF,2026-04-23T05:07:53.073408,15.08800000,.00011925,53.2184,54.3521,72.8302,287.2821,0,U,53729,999,20130,-.28308032E-3,-.4785E-4,0
STARLINK-4641,2022-107AG,2026-04-23T06:32:36.137472,15.08837375,.00016747,53.2181,54.0100,80.0351,280.0831,0,U,53730,999,20128,.9514568E-5,-.137E-5,0
STARLINK-4636,2022-107AH,2026-04-23T02:20:07.687680,15.13739678,.00027268,53.2138,52.9454,332.1850,27.8998,0,U,53731,999,20131,.12723904E-2,.22971E-3,0
STARLINK-4661,2022-107AJ,2026-04-23T06:39:17.324640,15.08837075,.00013431,53.2180,54.0382,67.5431,292.5703,0,U,53732,999,20128,.7267779E-5,-.172E-5,0
STARLINK-4574,2022-107AK,2026-04-23T05:23:45.568608,15.08831756,.00014167,53.2183,54.4219,90.4117,269.7037,0,U,53733,999,20130,.37739996E-4,.313E-5,0
STARLINK-4616,2022-107AL,2026-04-23T06:37:54.780672,15.08836835,.00016535,53.2188,54.0343,86.5736,273.5445,0,U,53734,999,20131,.5990552E-5,-.193E-5,0
STARLINK-4618,2022-107AM,2026-04-23T06:04:44.753664,15.08838313,.00018574,53.2189,63.8756,79.0117,281.1084,0,U,53735,999,20117,-.5037082E-5,-.368E-5,0
STARLINK-4652,2022-107AN,2026-04-23T05:18:27.424800,15.08817692,.00005079,53.2171,54.3970,83.2645,276.8405,0,U,53736,999,20130,-.11746729E-4,-.474E-5,0
STARLINK-4662,2022-107AQ,2026-04-23T02:48:40.627296,15.08833332,.00016874,53.2169,64.4513,92.8521,267.2664,0,U,53738,999,20115,.12280905E-3,.1667E-4,0
STARLINK-4607,2022-107AS,2026-04-23T06:15:21.529440,15.08839677,.00015935,53.2174,63.9241,91.0055,269.1120,0,U,53740,999,20132,.37591075E-4,.31E-5,0
STARLINK-4637,2022-107AU,2026-04-23T03:09:55.242432,15.08823540,.00019641,53.2172,64.5408,88.1859,271.9358,0,U,53742,999,20130,-.10646398E-3,-.1981E-4,0
STARLINK-4645,2022-107AV,2026-04-23T06:41:53.020896,15.08836726,.00015956,53.2171,64.0381,83.8623,276.2551,0,U,53743,999,20132,-.2136454E-4,-.628E-5,0
STARLINK-4670,2022-107AW,2026-04-23T05:38:13.049664,15.08835972,.00014325,53.2186,63.7715,84.8569,275.2586,0,U,53744,999,20132,.2207122E-5,-.253E-5,0
STARLINK-4656,2022-107AX,2026-04-23T03:36:25.168320,15.08835033,.00013917,53.2177,64.6554,64.9995,295.1141,0,U,53745,999,20130,-.19581755E-4,-.6E-5,0
STARLINK-4589,2022-107AY,2026-04-23T06:36:34.196256,15.08824806,.00013887,53.2170,64.0152,87.7917,272.3234,0,U,53746,999,20132,.70918797E-4,.84E-5,0
STARLINK-4612,2022-107BC,2026-04-23T06:57:47.924064,15.08844308,.00019404,53.2124,64.1058,82.4389,277.6824,0,U,53750,999,20133,-.61440032E-4,-.1266E-4,0
STARLINK-4718,2022-111A,2026-04-23T02:46:02.500608,15.08839691,.00010781,53.2169,84.6077,82.0982,278.0133,0,U,53773,999,20055,.46775869E-4,.457E-5,0
STARLINK-4719,2022-111B,2026-04-23T02:40:44.117472,15.08838378,.00016485,53.2163,84.5857,76.3910,283.7266,0,U,53774,999,20041,.46044511E-4,.445E-5,0
STARLINK-4722,2022-111C,2026-04-23T06:35:17.381472,15.08836667,.00013876,53.2175,74.2052,84.7243,275.3907,0,U,53775,999,20042,.24878723E-4,.108E-5,0
STARLINK-4664,2022-111E,2026-04-23T06:24:40.603104,15.08835425,.00013922,53.2173,74.1589,82.3803,277.7347,0,U,53777,999,20042,.234875E-6,-.284E-5,0
STARLINK-4709,2022-111F,2026-04-23T07:03:41.304384,15.08828468,.00014028,53.2166,78.6096,85.4174,274.6979,0,U,53778,999,20036,.76300986E-4,.926E-5,0
STARLINK-4706,2022-111G,2026-04-23T06:19:22.472256,15.08838578,.00015931,53.2180,74.1386,95.1744,264.9430,0,U,53779,999,20042,-.55781536E-4,-.1176E-4,0
STARLINK-4678,2022-111H,2026-04-23T06:29:58.891200,15.08837205,.00013963,53.2179,74.1815,81.1312,278.9838,0,U,53780,999,20042,.1263954E-5,-.268E-5,0
STARLINK-4462,2022-111J,2026-04-23T04:28:04.020096,15.08842443,.00014854,53.2172,74.3659,81.8259,278.2902,0,U,53781,999,20041,-.20302879E-4,-.611E-5,0
