STARLINK-4700           
1 53722U 22107Y   26113.06286518 -.00000340  00000+0 -32637-5 0  9994
2 53722  53.2179  54.8307 0001572  87.8073 272.3100 15.08835539201109
STARLINK-4705           
1 53723U 22107Z   26113.23579330  .00000782  00000+0  67198-4 0  9998
2 53723  53.2176  53.7887 0001500  94.0139 266.1025 15.08843107201288
STARLINK-4663           
1 53724U 22107AA  26113.11805121 -.00000388  00000+0 -62599-5 0  9991
2 53724  53.2175  54.4702 0001562  90.2633 269.8538 15.08835354201124
STARLINK-4697           
1 53726U 22107AC  26113.12542216 -.00000123  00000+0  10361-4 0  9992
2 53726  53.2179  54.5144 0001582  89.4929 270.6244 15.08835983201123
STARLINK-4701           
1 53727U 22107AD  26113.13647582 -.00001357  00000+0 -67148-4 0  9992
2 53727  53.2180  54.5828 0001368  89.8078 270.3071 15.08844972201264
STARLINK-4640           
1 53728U 22107AE  26113.26527288 -.00000298  00000+0 -60417-6 0  9994
2 53728  53.2178  53.9639 0001493  88.4237 271.6926 15.08835084201285
STARLINK-4651           
1 53729U 22107AF  26113.21380872 -.00004785  00000+0 -28308-3 0  9991
2 53729  53.2184  54.3521 0001192  72.8302 287.2821 15.08800000201304
STARLINK-4641           
1 53730U 22107AG  26113.27264048 -.00000137  00000+0  95146-5 0  9997
2 53730  53.2181  54.0100 0001674  80.0351 280.0831 15.08837375201287
STARLINK-4636           
1 53731U 22107AH  26113.09731120  .00022971  00000+0  12724-2 0  9995
2 53731  53.2138  52.9454 0002726 332.1850  27.8998 15.13739678201311
STARLINK-4661           
1 53732U 22107AJ  26113.27728385 -.00000172  00000+0  72678-5 0  9992
2 53732  53.2180  54.0382 0001343  67.5431 292.5703 15.08837075201285
STARLINK-4574           
1 53733U 22107AK  26113.22483297  .00000313  00000+0  37740-4 0  9994
2 53733  53.2183  54.4219 0001416  90.4117 269.7037 15.08831756201308
STARLINK-4616           
1 53734U 22107AL  26113.27632848 -.00000193  00000+0  59906-5 0  9994
2 53734  53.2188  54.0343 0001653  86.5736 273.5445 15.08836835201314
STARLINK-4618           
1 53735U 22107AM  26113.25329576 -.00000368  00000+0 -50371-5 0  9996
2 53735  53.2189  63.8756 0001857  79.0117 281.1084 15.08838313201179
STARLINK-4652           
1 53736U 22107AN  26113.22115075 -.00000474  00000+0 -11747-4 0  9992
2 53736  53.2171  54.3970 0000507  83.2645 276.8405 15.08817692201308
STARLINK-4662           
1 53738U 22107AQ  26113.11713689  .00001667  00000+0  12281-3 0  9993
2 53738  53.2169  64.4513 0001687  92.8521 267.2664 15.08833332201154
STARLINK-4607           
1 53740U 22107AS  26113.26066585  .00000310  00000+0  37591-4 0  9994
2 53740  53.2174  63.9241 0001593  91.0055 269.1120 15.08839677201329
STARLINK-4637           
1 53742U 22107AU  26113.13188938 -.00001981  00000+0 -10646-3 0  9997
2 53742  53.2172  64.5408 0001964  88.1859 271.9358 15.08823540201306
STARLINK-4645           
1 53743U 22107AV  26113.27908589 -.00000628  00000+0 -21365-4 0  9993
2 53743  53.2171  64.0381 0001595  83.8623 276.2551 15.08836726201327
STARLINK-4670           
1 53744U 22107AW  26113.23487326 -.00000253  00000+0  22071-5 0  9990
2 53744  53.2186  63.7715 0001432  84.8569 275.2586 15.08835972201320
STARLINK-4656           
1 53745U 22107AX  26113.15029130 -.00000600  00000+0 -19582-4 0  9996
2 53745  53.2177  64.6554 0001391  64.9995 295.1141 15.08835033201302
STARLINK-4589           
1 53746U 22107AY  26113.27539579  .00000840  00000+0  70919-4 0  9998
2 53746  53.2170  64.0152 0001388  87.7917 272.3234 15.08824806201325
STARLINK-4612           
1 53750U 22107BC  26113.29013801 -.00001266  00000+0 -61440-4 0  9994
2 53750  53.2124  64.1058 0001940  82.4389 277.6824 15.08844308201337
STARLINK-4718           
1 53773U 22111A   26113.11530672  .00000457  00000+0  46776-4 0  9999
2 53773  53.2169  84.6077 0001078  82.0982 278.0133 15.08839691200556
STARLINK-4719           
1 53774U 22111B   26113.11162173  .00000445  00000+0  46045-4 0  9993
2 53774  53.2163  84.5857 0001648  76.3910 283.7266 15.08838378200412
STARLINK-4722           
1 53775U 22111C   26113.27450673  .00000108  00000+0  24879-4 0  9993
2 53775  53.2175  74.2052 0001387  84.7243 275.3907 15.08836667200420
STARLINK-4664           
1 53777U 22111E   26113.26713661 -.00000284  00000+0  23487-6 0  9995
2 53777  53.2173  74.1589 0001392  82.3803 277.7347 15.08835425200421
STARLINK-4709           
1 53778U 22111F   26113.29422806  .00000926  00000+0  76301-4 0  9990
2 53778  53.2166  78.6096 0001402  85.4174 274.6979 15.08828468200362
STARLINK-4706           
1 53779U 22111G   26113.26345454 -.00001176  00000+0 -55782-4 0  9991
2 53779  53.2180  74.1386 0001593  95.1744 264.9430 15.08838578200428
STARLINK-4678           
1 53780U 22111H   26113.27082050 -.00000268  00000+0  12640-5 0  9991
2 53780  53.2179  74.1815 0001396  81.1312 278.9838 15.08837205200425
STARLINK-4462           
1 53781U 22111J   26113.18615764 -.00000611  00000+0 -20303-4 0  9993
2 53781  53.2172  74.3659 0001485  81.8259 278.2902 15.08842443200417
